[
    {
        "CCSDS_OMM_VERS": "2.0",
        "COMMENT": "GENERATED VIA SPACE-TRACK.ORG API",
        "CREATION_DATE": "2023-08-25T05:01:29",
        "ORIGINATOR": "18 SPCS",
        "OBJECT_NAME": "TBA - TO BE ASSIGNED",
        "OBJECT_ID": "UNKNOWN",
        "CENTER_NAME": "EARTH",
        "REF_FRAME": "TEME",
        "TIME_SYSTEM": "UTC",
        "MEAN_ELEMENT_THEORY": "SGP4",
        "EPOCH": "2023-08-20T23:08:19.846176",
        "MEAN_MOTION": "12.25198033",
        "ECCENTRICITY": "0.04730390",
        "INCLINATION": "82.7540",
        "RA_OF_ASC_NODE": "307.5023",
        "ARG_OF_PERICENTER": "40.4131",
        "MEAN_ANOMALY": "323.1090",
        "EPHEMERIS_TYPE": "0",
        "CLASSIFICATION_TYPE": "U",
        "NORAD_CAT_ID": "270282",
        "ELEMENT_SET_NO": "999",
        "REV_AT_EPOCH": "15423",
        "BSTAR": "-0.00051681702000",
        "MEAN_MOTION_DOT": "-0.00000070",
        "MEAN_MOTION_DDOT": "0.0000000000000",
        "SEMIMAJOR_AXIS": "7948.118",
        "PERIOD": "117.532",
        "APOAPSIS": "1945.960",
        "PERIAPSIS": "1194.006",
        "OBJECT_TYPE": "UNKNOWN",
        "RCS_SIZE": null,
        "COUNTRY_CODE": null,
        "LAUNCH_DATE": null,
        "SITE": null,
        "DECAY_DATE": null,
        "FILE": "3988199",
        "GP_ID": "235853833",
        "TLE_LINE0": "0 TBA - TO BE ASSIGNED",
        "TLE_LINE1": "1 T0282U          23232.96411859 -.00000070  00000-0 -51682-3 0  9991",
        "TLE_LINE2": "2 T0282  82.7540 307.5023 0473039  40.4131 323.1090 12.25198033154236"
    },
    {
        "CCSDS_OMM_VERS": "2.0",
        "COMMENT": "GENERATED VIA SPACE-TRACK.ORG API",
        "CREATION_DATE": "2023-09-12T19:41:05",
        "ORIGINATOR": "18 SPCS",
        "OBJECT_NAME": "TBA - TO BE ASSIGNED",
        "OBJECT_ID": "UNKNOWN",
        "CENTER_NAME": "EARTH",
        "REF_FRAME": "TEME",
        "TIME_SYSTEM": "UTC",
        "MEAN_ELEMENT_THEORY": "SGP4",
        "EPOCH": "2023-09-11T20:43:10.454880",
        "MEAN_MOTION": "12.28781419",
        "ECCENTRICITY": "0.01000080",
        "INCLINATION": "82.4979",
        "RA_OF_ASC_NODE": "102.8442",
        "ARG_OF_PERICENTER": "258.5117",
        "MEAN_ANOMALY": "100.4711",
        "EPHEMERIS_TYPE": "0",
        "CLASSIFICATION_TYPE": "U",
        "NORAD_CAT_ID": "270281",
        "ELEMENT_SET_NO": "999",
        "REV_AT_EPOCH": "15474",
        "BSTAR": "0.01979680600000",
        "MEAN_MOTION_DOT": "0.00002334",
        "MEAN_MOTION_DDOT": "0.0000000000000",
        "SEMIMAJOR_AXIS": "7932.658",
        "PERIOD": "117.189",
        "APOAPSIS": "1633.856",
        "PERIAPSIS": "1475.190",
        "OBJECT_TYPE": "UNKNOWN",
        "RCS_SIZE": null,
        "COUNTRY_CODE": null,
        "LAUNCH_DATE": null,
        "SITE": null,
        "DECAY_DATE": null,
        "FILE": "4004425",
        "GP_ID": "236984612",
        "TLE_LINE0": "0 TBA - TO BE ASSIGNED",
        "TLE_LINE1": "1 T0281U          23254.86331545  .00002334  00000-0  19797-1 0  9998",
        "TLE_LINE2": "2 T0281  82.4979 102.8442 0100008 258.5117 100.4711 12.28781419154749"
    },
    {
        "CCSDS_OMM_VERS": "2.0",
        "COMMENT": "GENERATED VIA SPACE-TRACK.ORG API",
        "CREATION_DATE": "2023-09-10T19:00:24",
        "ORIGINATOR": "18 SPCS",
        "OBJECT_NAME": "TBA - TO BE ASSIGNED",
        "OBJECT_ID": "UNKNOWN",
        "CENTER_NAME": "EARTH",
        "REF_FRAME": "TEME",
        "TIME_SYSTEM": "UTC",
        "MEAN_ELEMENT_THEORY": "SGP4",
        "EPOCH": "2023-09-09T23:25:09.348960",
        "MEAN_MOTION": "12.96636902",
        "ECCENTRICITY": "0.00308480",
        "INCLINATION": "90.2529",
        "RA_OF_ASC_NODE": "344.8732",
        "ARG_OF_PERICENTER": "147.6719",
        "MEAN_ANOMALY": "212.6300",
        "EPHEMERIS_TYPE": "0",
        "CLASSIFICATION_TYPE": "U",
        "NORAD_CAT_ID": "270280",
        "ELEMENT_SET_NO": "999",
        "REV_AT_EPOCH": "16365",
        "BSTAR": "-0.00083395982000",
        "MEAN_MOTION_DOT": "-0.00000232",
        "MEAN_MOTION_DDOT": "0.0000000000000",
        "SEMIMAJOR_AXIS": "7653.433",
        "PERIOD": "111.057",
        "APOAPSIS": "1298.907",
        "PERIAPSIS": "1251.688",
        "OBJECT_TYPE": "UNKNOWN",
        "RCS_SIZE": null,
        "COUNTRY_CODE": null,
        "LAUNCH_DATE": null,
        "SITE": null,
        "DECAY_DATE": null,
        "FILE": "4002632",
        "GP_ID": "236887001",
        "TLE_LINE0": "0 TBA - TO BE ASSIGNED",
        "TLE_LINE1": "1 T0280U          23252.97580265 -.00000232  00000-0 -83396-3 0  9997",
        "TLE_LINE2": "2 T0280  90.2529 344.8732 0030848 147.6719 212.6300 12.96636902163657"
    },
    {
        "CCSDS_OMM_VERS": "2.0",
        "COMMENT": "GENERATED VIA SPACE-TRACK.ORG API",
        "CREATION_DATE": "2023-09-06T17:56:24",
        "ORIGINATOR": "18 SPCS",
        "OBJECT_NAME": "TBA - TO BE ASSIGNED",
        "OBJECT_ID": "UNKNOWN",
        "CENTER_NAME": "EARTH",
        "REF_FRAME": "TEME",
        "TIME_SYSTEM": "UTC",
        "MEAN_ELEMENT_THEORY": "SGP4",
        "EPOCH": "2023-09-06T00:03:46.679904",
        "MEAN_MOTION": "12.93538617",
        "ECCENTRICITY": "0.00226424",
        "INCLINATION": "90.2424",
        "RA_OF_ASC_NODE": "342.4855",
        "ARG_OF_PERICENTER": "301.2137",
        "MEAN_ANOMALY": "58.6763",
        "EPHEMERIS_TYPE": "0",
        "CLASSIFICATION_TYPE": "U",
        "NORAD_CAT_ID": "270279",
        "ELEMENT_SET_NO": "999",
        "REV_AT_EPOCH": "16259",
        "BSTAR": "0.00138181090000",
        "MEAN_MOTION_DOT": "0.00000387",
        "MEAN_MOTION_DDOT": "0.0000000000000",
        "SEMIMAJOR_AXIS": "7665.649",
        "PERIOD": "111.323",
        "APOAPSIS": "1304.871",
        "PERIAPSIS": "1270.157",
        "OBJECT_TYPE": "UNKNOWN",
        "RCS_SIZE": null,
        "COUNTRY_CODE": null,
        "LAUNCH_DATE": null,
        "SITE": null,
        "DECAY_DATE": null,
        "FILE": "3999158",
        "GP_ID": "236611385",
        "TLE_LINE0": "0 TBA - TO BE ASSIGNED",
        "TLE_LINE1": "1 T0279U          23249.00262361  .00000387  00000-0  13818-2 0  9999",
        "TLE_LINE2": "2 T0279  90.2424 342.4855 0022642 301.2137  58.6763 12.93538617162598"
    },
    {
        "CCSDS_OMM_VERS": "2.0",
        "COMMENT": "GENERATED VIA SPACE-TRACK.ORG API",
        "CREATION_DATE": "2023-09-10T19:00:24",
        "ORIGINATOR": "18 SPCS",
        "OBJECT_NAME": "TBA - TO BE ASSIGNED",
        "OBJECT_ID": "UNKNOWN",
        "CENTER_NAME": "EARTH",
        "REF_FRAME": "TEME",
        "TIME_SYSTEM": "UTC",
        "MEAN_ELEMENT_THEORY": "SGP4",
        "EPOCH": "2023-09-10T01:56:49.503264",
        "MEAN_MOTION": "14.12268178",
        "ECCENTRICITY": "0.03681826",
        "INCLINATION": "34.0865",
        "RA_OF_ASC_NODE": "25.6570",
        "ARG_OF_PERICENTER": "207.0172",
        "MEAN_ANOMALY": "151.0884",
        "EPHEMERIS_TYPE": "0",
        "CLASSIFICATION_TYPE": "U",
        "NORAD_CAT_ID": "270278",
        "ELEMENT_SET_NO": "999",
        "REV_AT_EPOCH": "17764",
        "BSTAR": "0.00514985280000",
        "MEAN_MOTION_DOT": "0.00018372",
        "MEAN_MOTION_DDOT": "0.0000000000000",
        "SEMIMAJOR_AXIS": "7229.757",
        "PERIOD": "101.964",
        "APOAPSIS": "1117.809",
        "PERIAPSIS": "585.435",
        "OBJECT_TYPE": "UNKNOWN",
        "RCS_SIZE": null,
        "COUNTRY_CODE": null,
        "LAUNCH_DATE": null,
        "SITE": null,
        "DECAY_DATE": null,
        "FILE": "4002632",
        "GP_ID": "236887000",
        "TLE_LINE0": "0 TBA - TO BE ASSIGNED",
        "TLE_LINE1": "1 T0278U          23253.08112851  .00018372  00000-0  51499-2 0  9999",
        "TLE_LINE2": "2 T0278  34.0865  25.6570 0368183 207.0172 151.0884 14.12268178177640"
    }]